start=new Date('2022-02-27T00:00:00.000Z').valueOf();
sats=[{"EPHEMERIS_TYPE":"0","TLE_LINE1":"1 51721U 22016H   22057.91667824 -.00872867  00000-0 -64483-2 0  9993","MEAN_ELEMENT_THEORY":"SGP4","REV_AT_EPOCH":"152","RCS_SIZE":null,"ARG_OF_PERICENTER":"56.4191","LAUNCH_DATE":"2022-02-21","MEAN_MOTION":"15.74728740","REF_FRAME":"TEME","MEAN_MOTION_DDOT":"0.0000000000000","CENTER_NAME":"EARTH","CLASSIFICATION_TYPE":"U","COUNTRY_CODE":"US","EPOCH":"2022-02-26T22:00:00.999936","TLE_LINE2":"2 51721  53.2174 113.2488 0001074  56.4191 340.9042 15.74728740  1520","OBJECT_TYPE":"PAYLOAD","RA_OF_ASC_NODE":"113.2488","DECAY_DATE":null,"SITE":"AFETR","MEAN_MOTION_DOT":"-0.00872867","SEMIMAJOR_AXIS":"6723.540","ELEMENT_SET_NO":"999","OBJECT_NAME":"STARLINK-3524","BSTAR":"-0.00644830000000","PERIOD":"91.444","INCLINATION":"53.2174","MEAN_ANOMALY":"340.9042","PERIAPSIS":"344.683","GP_ID":"197163017","TIME_SYSTEM":"UTC","ECCENTRICITY":"0.00010740","NORAD_CAT_ID":"51721","FILE":"3327391","OBJECT_ID":"2022-016H","APOAPSIS":"346.127"},{"LAUNCH_DATE":"2022-02-21","ARG_OF_PERICENTER":"61.0335","MEAN_ELEMENT_THEORY":"SGP4","REV_AT_EPOCH":"152","RCS_SIZE":null,"TLE_LINE1":"1 51722U 22016J   22057.91667824 -.00872975  00000-0 -63890-2 0  9995","EPHEMERIS_TYPE":"0","EPOCH":"2022-02-26T22:00:00.999936","TLE_LINE2":"2 51722  53.2174 113.2439 0001039  61.0335 338.8173 15.74942721  1528","REF_FRAME":"TEME","MEAN_MOTION_DDOT":"0.0000000000000","CENTER_NAME":"EARTH","CLASSIFICATION_TYPE":"U","COUNTRY_CODE":"US","MEAN_MOTION":"15.74942721","INCLINATION":"53.2174","PERIOD":"91.432","MEAN_ANOMALY":"338.8173","PERIAPSIS":"344.098","BSTAR":"-0.00638900000000","SITE":"AFETR","ELEMENT_SET_NO":"999","SEMIMAJOR_AXIS":"6722.931","MEAN_MOTION_DOT":"-0.00872975","OBJECT_NAME":"STARLINK-3535","OBJECT_TYPE":"PAYLOAD","RA_OF_ASC_NODE":"113.2439","DECAY_DATE":null,"OBJECT_ID":"2022-016J","FILE":"3327391","APOAPSIS":"345.495","NORAD_CAT_ID":"51722","ECCENTRICITY":"0.00010390","GP_ID":"197163210","TIME_SYSTEM":"UTC"},{"COUNTRY_CODE":"US","MEAN_MOTION_DDOT":"0.0000000000000","CLASSIFICATION_TYPE":"U","CENTER_NAME":"EARTH","REF_FRAME":"TEME","MEAN_MOTION":"15.77624854","TLE_LINE2":"2 51723  53.2209 113.2359 0004503 284.5698 121.3515 15.77624854  1524","EPOCH":"2022-02-26T22:00:00.999936","TLE_LINE1":"1 51723U 22016K   22057.91667824  .00053124  00000-0  31373-3 0  9993","EPHEMERIS_TYPE":"0","ARG_OF_PERICENTER":"284.5698","LAUNCH_DATE":"2022-02-21","RCS_SIZE":null,"REV_AT_EPOCH":"152","MEAN_ELEMENT_THEORY":"SGP4","TIME_SYSTEM":"UTC","GP_ID":"197162793","APOAPSIS":"340.198","FILE":"3327391","OBJECT_ID":"2022-016K","ECCENTRICITY":"0.00045030","NORAD_CAT_ID":"51723","MEAN_MOTION_DOT":"0.00053124","SEMIMAJOR_AXIS":"6715.309","ELEMENT_SET_NO":"999","OBJECT_NAME":"STARLINK-3531","SITE":"AFETR","DECAY_DATE":null,"RA_OF_ASC_NODE":"113.2359","OBJECT_TYPE":"PAYLOAD","PERIAPSIS":"334.150","MEAN_ANOMALY":"121.3515","PERIOD":"91.276","INCLINATION":"53.2209","BSTAR":"0.00031373000000"},{"TLE_LINE2":"2 51724  53.2174 113.2421 0001018  61.6051 339.2054 15.75035934  1522","EPOCH":"2022-02-26T22:00:00.999936","COUNTRY_CODE":"US","MEAN_MOTION_DDOT":"0.0000000000000","CLASSIFICATION_TYPE":"U","CENTER_NAME":"EARTH","REF_FRAME":"TEME","MEAN_MOTION":"15.75035934","LAUNCH_DATE":"2022-02-21","ARG_OF_PERICENTER":"61.6051","RCS_SIZE":null,"REV_AT_EPOCH":"152","MEAN_ELEMENT_THEORY":"SGP4","TLE_LINE1":"1 51724U 22016L   22057.91667824 -.00872908  00000-0 -63624-2 0  9998","EPHEMERIS_TYPE":"0","APOAPSIS":"345.215","FILE":"3327391","OBJECT_ID":"2022-016L","ECCENTRICITY":"0.00010180","NORAD_CAT_ID":"51724","TIME_SYSTEM":"UTC","GP_ID":"197163303","PERIAPSIS":"343.847","MEAN_ANOMALY":"339.2054","PERIOD":"91.426","INCLINATION":"53.2174","BSTAR":"-0.00636240000000","SEMIMAJOR_AXIS":"6722.666","MEAN_MOTION_DOT":"-0.00872908","OBJECT_NAME":"STARLINK-3529","ELEMENT_SET_NO":"999","SITE":"AFETR","DECAY_DATE":null,"RA_OF_ASC_NODE":"113.2421","OBJECT_TYPE":"PAYLOAD"},{"REV_AT_EPOCH":"152","RCS_SIZE":null,"MEAN_ELEMENT_THEORY":"SGP4","ARG_OF_PERICENTER":"74.3775","LAUNCH_DATE":"2022-02-21","EPHEMERIS_TYPE":"0","TLE_LINE1":"1 51725U 22016M   22057.91667824 -.00872417  00000-0 -63948-2 0  9993","EPOCH":"2022-02-26T22:00:00.999936","TLE_LINE2":"2 51725  53.2174 113.2448 0000988  74.3775 324.9533 15.74906405  1523","MEAN_MOTION":"15.74906405","COUNTRY_CODE":"US","REF_FRAME":"TEME","MEAN_MOTION_DDOT":"0.0000000000000","CENTER_NAME":"EARTH","CLASSIFICATION_TYPE":"U","BSTAR":"-0.00639480000000","MEAN_ANOMALY":"324.9533","PERIAPSIS":"344.235","INCLINATION":"53.2174","PERIOD":"91.434","DECAY_DATE":null,"OBJECT_TYPE":"PAYLOAD","RA_OF_ASC_NODE":"113.2448","SITE":"AFETR","MEAN_MOTION_DOT":"-0.00872417","SEMIMAJOR_AXIS":"6723.035","OBJECT_NAME":"STARLINK-3522","ELEMENT_SET_NO":"999","NORAD_CAT_ID":"51725","ECCENTRICITY":"0.00009880","FILE":"3327391","OBJECT_ID":"2022-016M","APOAPSIS":"345.564","TIME_SYSTEM":"UTC","GP_ID":"197162697"},{"APOAPSIS":"344.937","FILE":"3327391","OBJECT_ID":"2022-016N","NORAD_CAT_ID":"51726","ECCENTRICITY":"0.00009690","GP_ID":"197162890","TIME_SYSTEM":"UTC","INCLINATION":"53.2174","PERIOD":"91.421","PERIAPSIS":"343.634","MEAN_ANOMALY":"326.8645","BSTAR":"-0.00633460000000","ELEMENT_SET_NO":"999","SEMIMAJOR_AXIS":"6722.421","MEAN_MOTION_DOT":"-0.00872428","OBJECT_NAME":"STARLINK-3527","SITE":"AFETR","RA_OF_ASC_NODE":"113.2401","OBJECT_TYPE":"PAYLOAD","DECAY_DATE":null,"TLE_LINE2":"2 51726  53.2174 113.2401 0000969  74.9146 326.8645 15.75122088  1523","EPOCH":"2022-02-26T22:00:00.999936","MEAN_MOTION_DDOT":"0.0000000000000","CENTER_NAME":"EARTH","CLASSIFICATION_TYPE":"U","REF_FRAME":"TEME","COUNTRY_CODE":"US","MEAN_MOTION":"15.75122088","ARG_OF_PERICENTER":"74.9146","LAUNCH_DATE":"2022-02-21","MEAN_ELEMENT_THEORY":"SGP4","RCS_SIZE":null,"REV_AT_EPOCH":"152","TLE_LINE1":"1 51726U 22016N   22057.91667824 -.00872428  00000-0 -63346-2 0  9998","EPHEMERIS_TYPE":"0"},{"TLE_LINE1":"1 51727U 22016P   22057.91667824 -.00872926  00000-0 -63749-2 0  9999","EPHEMERIS_TYPE":"0","LAUNCH_DATE":"2022-02-21","ARG_OF_PERICENTER":"64.1023","REV_AT_EPOCH":"152","RCS_SIZE":null,"MEAN_ELEMENT_THEORY":"SGP4","COUNTRY_CODE":"US","REF_FRAME":"TEME","MEAN_MOTION_DDOT":"0.0000000000000","CLASSIFICATION_TYPE":"U","CENTER_NAME":"EARTH","MEAN_MOTION":"15.74991946","EPOCH":"2022-02-26T22:00:00.999936","TLE_LINE2":"2 51727  53.2174 113.2428 0001001  64.1023 336.2215 15.74991946  1520","SITE":"AFETR","SEMIMAJOR_AXIS":"6722.791","MEAN_MOTION_DOT":"-0.00872926","OBJECT_NAME":"STARLINK-3532","ELEMENT_SET_NO":"999","DECAY_DATE":null,"OBJECT_TYPE":"PAYLOAD","RA_OF_ASC_NODE":"113.2428","MEAN_ANOMALY":"336.2215","PERIAPSIS":"343.983","PERIOD":"91.429","INCLINATION":"53.2174","BSTAR":"-0.00637490000000","TIME_SYSTEM":"UTC","GP_ID":"197163114","FILE":"3327391","OBJECT_ID":"2022-016P","APOAPSIS":"345.329","ECCENTRICITY":"0.00010010","NORAD_CAT_ID":"51727"},{"TLE_LINE1":"1 51728U 22016Q   22057.91667824 -.00872463  00000-0 -63120-2 0  9999","EPHEMERIS_TYPE":"0","LAUNCH_DATE":"2022-02-21","ARG_OF_PERICENTER":"81.3238","MEAN_ELEMENT_THEORY":"SGP4","RCS_SIZE":null,"REV_AT_EPOCH":"152","MEAN_MOTION_DDOT":"0.0000000000000","CENTER_NAME":"EARTH","CLASSIFICATION_TYPE":"U","REF_FRAME":"TEME","COUNTRY_CODE":"US","MEAN_MOTION":"15.75204646","TLE_LINE2":"2 51728  53.2174 113.2382 0000930  81.3238 321.4241 15.75204646  1529","EPOCH":"2022-02-26T22:00:00.999936","SEMIMAJOR_AXIS":"6722.186","OBJECT_NAME":"STARLINK-3448","MEAN_MOTION_DOT":"-0.00872463","ELEMENT_SET_NO":"999","SITE":"AFETR","RA_OF_ASC_NODE":"113.2382","OBJECT_TYPE":"PAYLOAD","DECAY_DATE":null,"INCLINATION":"53.2174","PERIOD":"91.417","PERIAPSIS":"343.426","MEAN_ANOMALY":"321.4241","BSTAR":"-0.00631200000000","GP_ID":"197163367","TIME_SYSTEM":"UTC","APOAPSIS":"344.676","FILE":"3327391","OBJECT_ID":"2022-016Q","NORAD_CAT_ID":"51728","ECCENTRICITY":"0.00009300"},{"TLE_LINE1":"1 51729U 22016R   22057.91667824 -.00872979  00000-0 -63513-2 0  9998","EPHEMERIS_TYPE":"0","ARG_OF_PERICENTER":"56.5900","LAUNCH_DATE":"2022-02-21","MEAN_ELEMENT_THEORY":"SGP4","REV_AT_EPOCH":"152","RCS_SIZE":null,"REF_FRAME":"TEME","MEAN_MOTION_DDOT":"0.0000000000000","CLASSIFICATION_TYPE":"U","CENTER_NAME":"EARTH","COUNTRY_CODE":"US","MEAN_MOTION":"15.75077395","EPOCH":"2022-02-26T22:00:00.999936","TLE_LINE2":"2 51729  53.2174 113.2409 0001052  56.5900 344.7128 15.75077395  1527","SITE":"AFETR","SEMIMAJOR_AXIS":"6722.548","ELEMENT_SET_NO":"999","MEAN_MOTION_DOT":"-0.00872979","OBJECT_NAME":"STARLINK-3523","OBJECT_TYPE":"PAYLOAD","RA_OF_ASC_NODE":"113.2409","DECAY_DATE":null,"PERIOD":"91.424","INCLINATION":"53.2174","MEAN_ANOMALY":"344.7128","PERIAPSIS":"343.706","BSTAR":"-0.00635130000000","GP_ID":"197163018","TIME_SYSTEM":"UTC","OBJECT_ID":"2022-016R","FILE":"3327391","APOAPSIS":"345.120","NORAD_CAT_ID":"51729","ECCENTRICITY":"0.00010520"},{"MEAN_MOTION":"15.75295834","MEAN_MOTION_DDOT":"0.0000000000000","CENTER_NAME":"EARTH","CLASSIFICATION_TYPE":"U","REF_FRAME":"TEME","COUNTRY_CODE":"US","TLE_LINE2":"2 51730  53.2174 113.2364 0000956  78.9404 324.7289 15.75295834  1524","EPOCH":"2022-02-26T22:00:00.999936","EPHEMERIS_TYPE":"0","TLE_LINE1":"1 51730U 22016S   22057.91667824 -.00872585  00000-0 -62876-2 0  9994","MEAN_ELEMENT_THEORY":"SGP4","RCS_SIZE":null,"REV_AT_EPOCH":"152","ARG_OF_PERICENTER":"78.9404","LAUNCH_DATE":"2022-02-21","GP_ID":"197163211","TIME_SYSTEM":"UTC","ECCENTRICITY":"0.00009560","NORAD_CAT_ID":"51730","APOAPSIS":"344.434","OBJECT_ID":"2022-016S","FILE":"3327391","RA_OF_ASC_NODE":"113.2364","OBJECT_TYPE":"PAYLOAD","DECAY_DATE":null,"ELEMENT_SET_NO":"999","SEMIMAJOR_AXIS":"6721.926","MEAN_MOTION_DOT":"-0.00872585","OBJECT_NAME":"STARLINK-3530","SITE":"AFETR","BSTAR":"-0.00628760000000","PERIOD":"91.411","INCLINATION":"53.2174","PERIAPSIS":"343.149","MEAN_ANOMALY":"324.7289"}];
